[{"OBJECT_NAME":"WNISAT-1","OBJECT_ID":"2013-066H","EPOCH":"2026-03-09T23:22:50.142144","MEAN_MOTION":14.57873953,"ECCENTRICITY":0.01635812,"INCLINATION":97.7044,"RA_OF_ASC_NODE":225.2618,"ARG_OF_PERICENTER":183.9709,"MEAN_ANOMALY":176.0205,"EPHEMERIS_TYPE":0,"CLASSIFICATION_TYPE":"U","NORAD_CAT_ID":39423,"ELEMENT_SET_NO":999,"REV_AT_EPOCH":65227,"BSTAR":0.00040775548,"MEAN_MOTION_DOT":2.198e-5,"MEAN_MOTION_DDOT":0},{"OBJECT_NAME":"CZ-6A DEB","OBJECT_ID":"2022-151KY","EPOCH":"2026-03-09T16:19:48.774432","MEAN_MOTION":14.74179774,"ECCENTRICITY":0.00332687,"INCLINATION":98.5942,"RA_OF_ASC_NODE":119.8006,"ARG_OF_PERICENTER":214.3499,"MEAN_ANOMALY":145.5556,"EPHEMERIS_TYPE":0,"CLASSIFICATION_TYPE":"U","NORAD_CAT_ID":54548,"ELEMENT_SET_NO":999,"REV_AT_EPOCH":17539,"BSTAR":0.0029849461,"MEAN_MOTION_DOT":0.00019871,"MEAN_MOTION_DDOT":0}]
